{
    "links": {
        "self": "http://www.neowsapp.com/rest/v1/neo/3837854?api_key=iIulBulltgU6a56xZRHN4H3l9WmuAYTsLGpBGhQ2"
    },
    "id": "3837854",
    "neo_reference_id": "3837854",
    "name": "(2019 AJ11)",
    "designation": "2019 AJ11",
    "nasa_jpl_url": "http://ssd.jpl.nasa.gov/sbdb.cgi?sstr=3837854",
    "absolute_magnitude_h": 24.7,
    "estimated_diameter": {
        "kilometers": {
            "estimated_diameter_min": 0.0305179233,
            "estimated_diameter_max": 0.0682401509
        },
        "meters": {
            "estimated_diameter_min": 30.5179232594,
            "estimated_diameter_max": 68.2401509401
        },
        "miles": {
            "estimated_diameter_min": 0.0189629525,
            "estimated_diameter_max": 0.0424024508
        },
        "feet": {
            "estimated_diameter_min": 100.1244233463,
            "estimated_diameter_max": 223.8850168104
        }
    },
    "is_potentially_hazardous_asteroid": false,
    "close_approach_data": [
        {
            "close_approach_date": "2018-12-24",
            "close_approach_date_full": "2018-Dec-24 08:19",
            "epoch_date_close_approach": 1545639540000,
            "relative_velocity": {
                "kilometers_per_second": "7.2877336312",
                "kilometers_per_hour": "26235.8410724391",
                "miles_per_hour": "16301.9313597053"
            },
            "miss_distance": {
                "astronomical": "0.0519466707",
                "lunar": "20.2072549023",
                "kilometers": "7771111.290311409",
                "miles": "4828744.6439350842"
            },
            "orbiting_body": "Earth"
        }
    ],
    "orbital_data": {
        "orbit_id": "1",
        "orbit_determination_date": "2019-01-15 08:12:04",
        "first_observation_date": "2019-01-11",
        "last_observation_date": "2019-01-14",
        "data_arc_in_days": 3,
        "observations_used": 18,
        "orbit_uncertainty": "8",
        "minimum_orbit_intersection": ".0508276",
        "jupiter_tisserand_invariant": "3.177",
        "epoch_osculation": "2458495.5",
        "eccentricity": ".5992560693893935",
        "semi_major_axis": "2.521524979103325",
        "inclination": "2.500860020265999",
        "ascending_node_longitude": "179.2983631931947",
        "orbital_period": "1462.491460972715",
        "perihelion_distance": "1.010485831258694",
        "perihelion_argument": "268.1823113656264",
        "aphelion_distance": "4.032564126947956",
        "perihelion_time": "2458473.229540128083",
        "mean_anomaly": "5.481991360522342",
        "mean_motion": ".2461552833686708",
        "equinox": "J2000",
        "orbit_class": {
            "orbit_class_type": "APO",
            "orbit_class_description": "Near-Earth asteroid orbits which cross the Earth’s orbit similar to that of 1862 Apollo",
            "orbit_class_range": "a (semi-major axis) > 1.0 AU; q (perihelion) < 1.017 AU"
        }
    },
    "is_sentry_object": false
}